ONEWEB-0356             
1 49283U 21090E   26111.93887423 -.00000047  00000+0 -14671-3 0  9997
2 49283  87.9141 285.6605 0002315 113.4210 246.7167 13.20773205222406
ONEWEB-0358             
1 49284U 21090F   26111.89311463  .00000085  00000+0  17750-3 0  9990
2 49284  87.9134 285.6727 0001715  98.6184 261.5144 13.20770033223127
ONEWEB-0359             
1 49285U 21090G   26111.88994921  .00000063  00000+0  12411-3 0  9991
2 49285  87.9134 285.6702 0001536  97.3919 262.7388 13.20769227223108
ONEWEB-0360             
1 49286U 21090H   26111.88049522  .00000011  00000+0 -50428-5 0  9996
2 49286  87.9135 285.6785 0001600  93.8131 266.3186 13.20772945222410
ONEWEB-0361             
1 49287U 21090J   26111.93730261 -.00000065  00000+0 -19165-3 0  9991
2 49287  87.9140 285.6651 0001845  99.7355 260.3986 13.20772742222870
ONEWEB-0362             
1 49288U 21090K   26111.92116595 -.00000003  00000+0 -39356-4 0  9996
2 49288  87.9158 316.2000 0001732  79.0187 281.1141 13.19723877219499
ONEWEB-0363             
1 49289U 21090L   26111.95306888  .00001339  00000+0  32601-2 0  9991
2 49289  87.9149 285.6626 0001704 107.5953 252.5367 13.20779750222882
ONEWEB-0364             
1 49290U 21090M   26111.38490511 -.00000003  00000+0 -38796-4 0  9999
2 49290  87.9131 285.7866 0001757  93.4356 266.6978 13.20769717223944
ONEWEB-0365             
1 49291U 21090N   26112.00646396 -.00000036  00000+0 -12126-3 0  9998
2 49291  87.9170 316.1666 0001867  84.9321 275.2025 13.19723282219011
ONEWEB-0366             
1 49292U 21090P   26111.88037398  .00000040  00000+0  72071-4 0  9999
2 49292  87.8916 300.9473 0001703  91.5320 268.6005 13.14502591220163
ONEWEB-0367             
1 49293U 21090Q   26111.95146712 -.00027837  00000+0 -68568-1 0  9997
2 49293  87.9136 285.6633 0001413 123.0777 237.0492 13.20907244222401
ONEWEB-0368             
1 49294U 21090R   26111.92467051 -.00000035  00000+0 -11689-3 0  9992
2 49294  87.9128 285.6853 0002527  98.2677 261.8743 13.20772999223554
ONEWEB-0369             
1 49295U 21090S   26112.00171576  .00000074  00000+0  15353-3 0  9990
2 49295  87.9154 316.1807 0001878  87.3131 272.8217 13.19723501219001
ONEWEB-0370             
1 49296U 21090T   26111.88521736 -.00000019  00000+0 -77468-4 0  9990
2 49296  87.9135 285.6769 0001537  89.2906 270.8403 13.20773123222434
ONEWEB-0371             
1 49297U 21090U   26111.93380376 -.00000063  00000+0 -18950-3 0  9999
2 49297  87.9163 316.1842 0001750  84.0326 276.1007 13.19723793219031
ONEWEB-0372             
1 49298U 21090V   26111.94978825 -.00000012  00000+0 -61241-4 0  9999
2 49298  87.9141 285.6648 0001897  92.0799 268.0552 13.20769842222415
