[{"OBJECT_NAME":"ONEWEB-0356","OBJECT_ID":"2021-090E","EPOCH":"2026-04-21T22:31:58.733472","MEAN_MOTION":13.20773205,"ECCENTRICITY":0.0002315,"INCLINATION":87.9141,"RA_OF_ASC_NODE":285.6605,"ARG_OF_PERICENTER":113.421,"MEAN_ANOMALY":246.7167,"EPHEMERIS_TYPE":0,"CLASSIFICATION_TYPE":"U","NORAD_CAT_ID":49283,"ELEMENT_SET_NO":999,"REV_AT_EPOCH":22240,"BSTAR":-0.00014671,"MEAN_MOTION_DOT":-4.7e-07,"MEAN_MOTION_DDOT":0.0},{"OBJECT_NAME":"ONEWEB-0358","OBJECT_ID":"2021-090F","EPOCH":"2026-04-21T21:26:05.104032","MEAN_MOTION":13.20770033,"ECCENTRICITY":0.0001715,"INCLINATION":87.9134,"RA_OF_ASC_NODE":285.6727,"ARG_OF_PERICENTER":98.6184,"MEAN_ANOMALY":261.5144,"EPHEMERIS_TYPE":0,"CLASSIFICATION_TYPE":"U","NORAD_CAT_ID":49284,"ELEMENT_SET_NO":999,"REV_AT_EPOCH":22312,"BSTAR":0.0001775,"MEAN_MOTION_DOT":8.5e-07,"MEAN_MOTION_DDOT":0.0},{"OBJECT_NAME":"ONEWEB-0359","OBJECT_ID":"2021-090G","EPOCH":"2026-04-21T21:21:31.611744","MEAN_MOTION":13.20769227,"ECCENTRICITY":0.0001536,"INCLINATION":87.9134,"RA_OF_ASC_NODE":285.6702,"ARG_OF_PERICENTER":97.3919,"MEAN_ANOMALY":262.7388,"EPHEMERIS_TYPE":0,"CLASSIFICATION_TYPE":"U","NORAD_CAT_ID":49285,"ELEMENT_SET_NO":999,"REV_AT_EPOCH":22310,"BSTAR":0.00012411,"MEAN_MOTION_DOT":6.3e-07,"MEAN_MOTION_DDOT":0.0},{"OBJECT_NAME":"ONEWEB-0360","OBJECT_ID":"2021-090H","EPOCH":"2026-04-21T21:07:54.787008","MEAN_MOTION":13.20772945,"ECCENTRICITY":0.00016,"INCLINATION":87.9135,"RA_OF_ASC_NODE":285.6785,"ARG_OF_PERICENTER":93.8131,"MEAN_ANOMALY":266.3186,"EPHEMERIS_TYPE":0,"CLASSIFICATION_TYPE":"U","NORAD_CAT_ID":49286,"ELEMENT_SET_NO":999,"REV_AT_EPOCH":22241,"BSTAR":-5.0428e-06,"MEAN_MOTION_DOT":1.1e-07,"MEAN_MOTION_DDOT":0.0},{"OBJECT_NAME":"ONEWEB-0361","OBJECT_ID":"2021-090J","EPOCH":"2026-04-21T22:29:42.945504","MEAN_MOTION":13.20772742,"ECCENTRICITY":0.0001845,"INCLINATION":87.914,"RA_OF_ASC_NODE":285.6651,"ARG_OF_PERICENTER":99.7355,"MEAN_ANOMALY":260.3986,"EPHEMERIS_TYPE":0,"CLASSIFICATION_TYPE":"U","NORAD_CAT_ID":49287,"ELEMENT_SET_NO":999,"REV_AT_EPOCH":22287,"BSTAR":-0.00019165,"MEAN_MOTION_DOT":-6.5e-07,"MEAN_MOTION_DDOT":0.0},{"OBJECT_NAME":"ONEWEB-0362","OBJECT_ID":"2021-090K","EPOCH":"2026-04-21T22:06:28.738080","MEAN_MOTION":13.19723877,"ECCENTRICITY":0.0001732,"INCLINATION":87.9158,"RA_OF_ASC_NODE":316.2,"ARG_OF_PERICENTER":79.0187,"MEAN_ANOMALY":281.1141,"EPHEMERIS_TYPE":0,"CLASSIFICATION_TYPE":"U","NORAD_CAT_ID":49288,"ELEMENT_SET_NO":999,"REV_AT_EPOCH":21949,"BSTAR":-3.9356e-05,"MEAN_MOTION_DOT":-3e-08,"MEAN_MOTION_DDOT":0.0},{"OBJECT_NAME":"ONEWEB-0363","OBJECT_ID":"2021-090L","EPOCH":"2026-04-21T22:52:25.151232","MEAN_MOTION":13.2077975,"ECCENTRICITY":0.0001704,"INCLINATION":87.9149,"RA_OF_ASC_NODE":285.6626,"ARG_OF_PERICENTER":107.5953,"MEAN_ANOMALY":252.5367,"EPHEMERIS_TYPE":0,"CLASSIFICATION_TYPE":"U","NORAD_CAT_ID":49289,"ELEMENT_SET_NO":999,"REV_AT_EPOCH":22288,"BSTAR":0.0032601,"MEAN_MOTION_DOT":1.339e-05,"MEAN_MOTION_DDOT":0.0},{"OBJECT_NAME":"ONEWEB-0364","OBJECT_ID":"2021-090M","EPOCH":"2026-04-21T09:14:15.801504","MEAN_MOTION":13.20769717,"ECCENTRICITY":0.0001757,"INCLINATION":87.9131,"RA_OF_ASC_NODE":285.7866,"ARG_OF_PERICENTER":93.4356,"MEAN_ANOMALY":266.6978,"EPHEMERIS_TYPE":0,"CLASSIFICATION_TYPE":"U","NORAD_CAT_ID":49290,"ELEMENT_SET_NO":999,"REV_AT_EPOCH":22394,"BSTAR":-3.8796000000000006e-05,"MEAN_MOTION_DOT":-3e-08,"MEAN_MOTION_DDOT":0.0},{"OBJECT_NAME":"ONEWEB-0365","OBJECT_ID":"2021-090N","EPOCH":"2026-04-22T00:09:18.486144","MEAN_MOTION":13.19723282,"ECCENTRICITY":0.0001867,"INCLINATION":87.917,"RA_OF_ASC_NODE":316.1666,"ARG_OF_PERICENTER":84.9321,"MEAN_ANOMALY":275.2025,"EPHEMERIS_TYPE":0,"CLASSIFICATION_TYPE":"U","NORAD_CAT_ID":49291,"ELEMENT_SET_NO":999,"REV_AT_EPOCH":21901,"BSTAR":-0.00012126000000000001,"MEAN_MOTION_DOT":-3.6e-07,"MEAN_MOTION_DDOT":0.0},{"OBJECT_NAME":"ONEWEB-0366","OBJECT_ID":"2021-090P","EPOCH":"2026-04-21T21:07:44.311872","MEAN_MOTION":13.14502591,"ECCENTRICITY":0.0001703,"INCLINATION":87.8916,"RA_OF_ASC_NODE":300.9473,"ARG_OF_PERICENTER":91.532,"MEAN_ANOMALY":268.6005,"EPHEMERIS_TYPE":0,"CLASSIFICATION_TYPE":"U","NORAD_CAT_ID":49292,"ELEMENT_SET_NO":999,"REV_AT_EPOCH":22016,"BSTAR":7.2071e-05,"MEAN_MOTION_DOT":4e-07,"MEAN_MOTION_DDOT":0.0},{"OBJECT_NAME":"ONEWEB-0367","OBJECT_ID":"2021-090Q","EPOCH":"2026-04-21T22:50:06.759168","MEAN_MOTION":13.20907244,"ECCENTRICITY":0.0001413,"INCLINATION":87.9136,"RA_OF_ASC_NODE":285.6633,"ARG_OF_PERICENTER":123.0777,"MEAN_ANOMALY":237.0492,"EPHEMERIS_TYPE":0,"CLASSIFICATION_TYPE":"U","NORAD_CAT_ID":49293,"ELEMENT_SET_NO":999,"REV_AT_EPOCH":22240,"BSTAR":-0.068568,"MEAN_MOTION_DOT":-0.00027837,"MEAN_MOTION_DDOT":0.0},{"OBJECT_NAME":"ONEWEB-0368","OBJECT_ID":"2021-090R","EPOCH":"2026-04-21T22:11:31.532064","MEAN_MOTION":13.20772999,"ECCENTRICITY":0.0002527,"INCLINATION":87.9128,"RA_OF_ASC_NODE":285.6853,"ARG_OF_PERICENTER":98.2677,"MEAN_ANOMALY":261.8743,"EPHEMERIS_TYPE":0,"CLASSIFICATION_TYPE":"U","NORAD_CAT_ID":49294,"ELEMENT_SET_NO":999,"REV_AT_EPOCH":22355,"BSTAR":-0.00011689,"MEAN_MOTION_DOT":-3.5e-07,"MEAN_MOTION_DDOT":0.0},{"OBJECT_NAME":"ONEWEB-0369","OBJECT_ID":"2021-090S","EPOCH":"2026-04-22T00:02:28.241664","MEAN_MOTION":13.19723501,"ECCENTRICITY":0.0001878,"INCLINATION":87.9154,"RA_OF_ASC_NODE":316.1807,"ARG_OF_PERICENTER":87.3131,"MEAN_ANOMALY":272.8217,"EPHEMERIS_TYPE":0,"CLASSIFICATION_TYPE":"U","NORAD_CAT_ID":49295,"ELEMENT_SET_NO":999,"REV_AT_EPOCH":21900,"BSTAR":0.00015353,"MEAN_MOTION_DOT":7.4e-07,"MEAN_MOTION_DDOT":0.0},{"OBJECT_NAME":"ONEWEB-0370","OBJECT_ID":"2021-090T","EPOCH":"2026-04-21T21:14:42.779904","MEAN_MOTION":13.20773123,"ECCENTRICITY":0.0001537,"INCLINATION":87.9135,"RA_OF_ASC_NODE":285.6769,"ARG_OF_PERICENTER":89.2906,"MEAN_ANOMALY":270.8403,"EPHEMERIS_TYPE":0,"CLASSIFICATION_TYPE":"U","NORAD_CAT_ID":49296,"ELEMENT_SET_NO":999,"REV_AT_EPOCH":22243,"BSTAR":-7.746800000000001e-05,"MEAN_MOTION_DOT":-1.9e-07,"MEAN_MOTION_DDOT":0.0},{"OBJECT_NAME":"ONEWEB-0371","OBJECT_ID":"2021-090U","EPOCH":"2026-04-21T22:24:40.644864","MEAN_MOTION":13.19723793,"ECCENTRICITY":0.000175,"INCLINATION":87.9163,"RA_OF_ASC_NODE":316.1842,"ARG_OF_PERICENTER":84.0326,"MEAN_ANOMALY":276.1007,"EPHEMERIS_TYPE":0,"CLASSIFICATION_TYPE":"U","NORAD_CAT_ID":49297,"ELEMENT_SET_NO":999,"REV_AT_EPOCH":21903,"BSTAR":-0.0001895,"MEAN_MOTION_DOT":-6.3e-07,"MEAN_MOTION_DDOT":0.0},{"OBJECT_NAME":"ONEWEB-0372","OBJECT_ID":"2021-090V","EPOCH":"2026-04-21T22:47:41.704800","MEAN_MOTION":13.20769842,"ECCENTRICITY":0.0001897,"INCLINATION":87.9141,"RA_OF_ASC_NODE":285.6648,"ARG_OF_PERICENTER":92.0799,"MEAN_ANOMALY":268.0552,"EPHEMERIS_TYPE":0,"CLASSIFICATION_TYPE":"U","NORAD_CAT_ID":49298,"ELEMENT_SET_NO":999,"REV_AT_EPOCH":22241,"BSTAR":-6.1241e-05,"MEAN_MOTION_DOT":-1.2e-07,"MEAN_MOTION_DDOT":0.0}]